{
    "links": {
        "self": "http://www.neowsapp.com/rest/v1/neo/3734557?api_key=iIulBulltgU6a56xZRHN4H3l9WmuAYTsLGpBGhQ2"
    },
    "id": "3734557",
    "neo_reference_id": "3734557",
    "name": "(2015 VJ105)",
    "designation": "2015 VJ105",
    "nasa_jpl_url": "http://ssd.jpl.nasa.gov/sbdb.cgi?sstr=3734557",
    "absolute_magnitude_h": 22.7,
    "estimated_diameter": {
        "kilometers": {
            "estimated_diameter_min": 0.0766575574,
            "estimated_diameter_max": 0.1714115092
        },
        "meters": {
            "estimated_diameter_min": 76.6575573531,
            "estimated_diameter_max": 171.4115092306
        },
        "miles": {
            "estimated_diameter_min": 0.0476327831,
            "estimated_diameter_max": 0.1065101409
        },
        "feet": {
            "estimated_diameter_min": 251.5011804664,
            "estimated_diameter_max": 562.3737359442
        }
    },
    "is_potentially_hazardous_asteroid": false,
    "close_approach_data": [
        {
            "close_approach_date": "2013-11-06",
            "close_approach_date_full": "2013-Nov-06 04:55",
            "epoch_date_close_approach": 1383713700000,
            "relative_velocity": {
                "kilometers_per_second": "25.9647004212",
                "kilometers_per_hour": "93472.9215164788",
                "miles_per_hour": "58080.4383722809"
            },
            "miss_distance": {
                "astronomical": "0.3436277746",
                "lunar": "133.6712043194",
                "kilometers": "51405983.153000102",
                "miles": "31942196.7519293276"
            },
            "orbiting_body": "Earth"
        },
        {
            "close_approach_date": "2015-10-28",
            "close_approach_date_full": "2015-Oct-28 04:59",
            "epoch_date_close_approach": 1446008340000,
            "relative_velocity": {
                "kilometers_per_second": "17.8418421426",
                "kilometers_per_hour": "64230.6317133737",
                "miles_per_hour": "39910.4166887904"
            },
            "miss_distance": {
                "astronomical": "0.2509977575",
                "lunar": "97.6381276675",
                "kilometers": "37548729.896776525",
                "miles": "23331698.852605045"
            },
            "orbiting_body": "Earth"
        },
        {
            "close_approach_date": "2017-10-31",
            "close_approach_date_full": "2017-Oct-31 17:56",
            "epoch_date_close_approach": 1509472560000,
            "relative_velocity": {
                "kilometers_per_second": "14.5500124194",
                "kilometers_per_hour": "52380.0447097072",
                "miles_per_hour": "32546.9227808733"
            },
            "miss_distance": {
                "astronomical": "0.4880999259",
                "lunar": "189.8708711751",
                "kilometers": "73018709.261797833",
                "miles": "45371722.0205747754"
            },
            "orbiting_body": "Earth"
        }
    ],
    "orbital_data": {
        "orbit_id": "5",
        "orbit_determination_date": "2017-04-06 08:30:42",
        "first_observation_date": "2015-11-09",
        "last_observation_date": "2015-11-20",
        "data_arc_in_days": 11,
        "observations_used": 22,
        "orbit_uncertainty": "8",
        "minimum_orbit_intersection": ".0624832",
        "jupiter_tisserand_invariant": "4.172",
        "epoch_osculation": "2457337.5",
        "eccentricity": ".5271070827404399",
        "semi_major_axis": "1.557035379487206",
        "inclination": "26.81594502264903",
        "ascending_node_longitude": "237.8431039290016",
        "orbital_period": "709.6531717666942",
        "perihelion_distance": ".7363110028820511",
        "perihelion_argument": "66.47890354878756",
        "aphelion_distance": "2.377759756092361",
        "perihelion_time": "2457256.304621336998",
        "mean_anomaly": "41.18960850398411",
        "mean_motion": ".5072900598806226",
        "equinox": "J2000",
        "orbit_class": {
            "orbit_class_type": "APO",
            "orbit_class_description": "Near-Earth asteroid orbits which cross the Earth’s orbit similar to that of 1862 Apollo",
            "orbit_class_range": "a (semi-major axis) > 1.0 AU; q (perihelion) < 1.017 AU"
        }
    },
    "is_sentry_object": false
}